satname,norad_id,inclination_deg,eccentricity,mean_motion_rev_per_day,perigee_km,apogee_km,l1,l2
STARLINK-1234,45190,53.0359,0.0004679,15.75272911,340.70947366545715,346.99991349230913,1 45190U 20012N   26163.30429926  .00077189  00000+0  50206-3 0  9994,2 45190  53.0359 218.0818 0004679 293.0945  66.9580 15.75272911350734
STARLINK-1269,45197,53.1572,3.77e-05,15.35390745,459.50233211499926,460.01790955791057,1 45197U 20012V   26163.15242573  .00052139  00000+0  14957-2 0  9995,2 45197  53.1572 319.6561 0000377 141.9147 218.1883 15.35390745349397
STARLINK-1154,45198,53.0423,0.0002487,15.64089261,374.1795835084904,377.53902126929825,1 45198U 20012W   26162.62079750  .00039461  00000+0  41255-3 0  9997,2 45198  53.0423 276.1988 0002487   0.3767 359.7249 15.64089261349907
STARLINK-1199,45201,53.1575,0.0002139,15.35361586,458.38405100109594,461.3093404261226,1 45201U 20012Z   26163.12349512  .00043964  00000+0  12654-2 0  9997,2 45201  53.1575 304.0602 0002139 293.5986  66.4792 15.35361586349634
STARLINK-1209,45206,53.0377,0.0007027,15.66149473,365.19304382765404,374.67678409553446,1 45206U 20012AE  26162.45090510  .00038368  00000+0  36948-3 0  9993,2 45206  53.0377 237.1902 0007027 257.4424 102.5805 15.66149473349544
STARLINK-1231,45212,53.0379,0.0002567,15.28115307,479.68580711899085,483.20751737118735,1 45212U 20012AL  26162.66971463  .00038867  00000+0  14043-2 0  9993,2 45212  53.0379 301.6148 0002567  71.3902 288.7375 15.28115307349568
STARLINK-1271,45217,53.1573,0.0002136,15.35570715,457.7653787004592,460.68630010545166,1 45217U 20012AR  26163.12044203  .00046255  00000+0  13216-2 0  9994,2 45217  53.1573 304.1909 0002136 298.2709  61.8079 15.35570715349635
STARLINK-1191,45222,53.1552,0.0002172,15.39587784,445.84487523770076,448.8098569583344,1 45222U 20012AW  26162.63490359  .00052064  00000+0  13040-2 0  9992,2 45222  53.1552 279.3562 0002172 247.2490 112.8286 15.39587784349946
STARLINK-1212,45223,53.0392,9.55e-05,15.67683694,364.8874870354366,366.1755277203456,1 45223U 20012AX  26163.86825939  .00051386  00000+0  46320-3 0  9999,2 45223  53.0392 245.7785 0000955  64.8951 295.2163 15.67683694350506
STARLINK-1215,45225,53.1573,0.0003313,15.35728047,456.49378586104103,461.02391305089077,1 45225U 20012AZ  26162.59888274  .00040244  00000+0  11463-2 0  9991,2 45225  53.1573 280.8995 0003313 301.0613  59.0065 15.35728047349877
STARLINK-1221,45227,53.0632,0.0002811,15.44992189,429.486862178539,433.3151844552485,1 45227U 20012BB  26163.77032113  .00015777  00000+0  33764-3 0  9999,2 45227  53.0632 177.9653 0002811 342.1410  17.9497 15.44992189351396
STARLINK-1222,45228,53.0529,0.0002797,15.55380249,399.1513797407015,402.9436555598759,1 45228U 20012BC  26162.55034574  .00031677  00000+0  46278-3 0  9999,2 45228  53.0529 250.8357 0002797  18.6133 341.4979 15.55380249350203
STARLINK-1226,45229,53.1546,0.000352,15.44604574,430.1428426718985,434.93755942143434,1 45229U 20012BD  26162.60592275  .00057521  00000+0  12168-2 0  9999,2 45229  53.1546 276.6672 0003520 296.4173  63.6473 15.44604574349876
STARLINK-1227,45230,53.154,0.0003333,15.44704086,429.9777944462139,434.51759688434504,1 45230U 20012BE  26162.61551230  .00057044  00000+0  12029-2 0  9994,2 45230  53.1540 276.7262 0003333 287.9711  72.0932 15.44704086349999
STARLINK-1246,45235,53.1573,0.0001972,15.35391491,458.4094730767438,461.1063388276507,1 45235U 20012BK  26163.74472213  .00044063  00000+0  12670-2 0  9996,2 45235  53.1573 316.5103 0001972 253.6332 106.4454 15.35391491349547
STARLINK-1270,45237,53.0398,0.0003298,15.63196059,376.203539652789,380.66017247024774,1 45237U 20012BM  26162.55468050  .00095187  00000+0  10154-2 0  9998,2 45237  53.0398 253.7638 0003298 319.2855  40.7911 15.63196059350274
STARLINK-1279,45360,53.0365,0.000521,15.75748467,339.0007217026887,346.0036277227391,1 45360U 20019A   26163.78800949  .00175439  00000+0  10996-2 0  9998,2 45360  53.0365 350.4310 0005210 130.6625 229.4847 15.75748467345584
STARLINK-1301,45361,53.0355,2.92e-05,15.81250893,326.70637530346903,327.0979495905558,1 45361U 20019B   26163.80630664  .00117196  00000+0  57902-3 0  9992,2 45361  53.0355 352.7055 0000292 319.2108  40.8892 15.81250893345562
STARLINK-1262,45366,53.1534,0.000384,15.34303145,460.36413562047073,465.6181220234066,1 45366U 20019G   26163.06767492  .00028518  00000+0  85446-3 0  9998,2 45366  53.1534  86.1639 0003840  90.6379 269.5063 15.34303145344213
STARLINK-1273,45367,53.0444,0.0004777,15.57663141,391.1869873177511,397.65749041456365,1 45367U 20019H   26162.99053490  .00043849  00000+0  58517-3 0  9999,2 45367  53.0444  61.4898 0004777  78.4739 281.6808 15.57663141344537
STARLINK-1277,45369,53.0419,0.000429,15.6484191,370.7969269743453,376.5899975109505,1 45369U 20019K   26162.98810499  .00046161  00000+0  46704-3 0  9995,2 45369  53.0419  55.3072 0004290  68.4630 291.6842 15.64841910344625
STARLINK-1281,45370,53.1552,0.0005042,15.35280375,456.63999768818576,463.53566360741024,1 45370U 20019L   26163.07669295  .00043394  00000+0  12521-2 0  9998,2 45370  53.1552  85.7210 0005042  82.9657 277.1920 15.35280375344225
STARLINK-1300,45374,53.1574,0.0004802,15.35849603,455.11519961449085,461.6810079281522,1 45374U 20019Q   26163.08748989  .00040080  00000+0  11371-2 0  9992,2 45374  53.1574  85.5637 0004802 102.5911 257.5630 15.35849603344224
STARLINK-1302,45375,53.046,0.0004777,15.67854237,361.8212543054133,368.26368797214036,1 45375U 20019R   26163.86858024  .00052246  00000+0  46737-3 0  9993,2 45375  53.0460  46.9600 0004777  86.8427 273.3135 15.67854237344811
STARLINK-1304,45376,53.0428,0.0004945,15.63266733,374.88719265693453,381.56923785482286,1 45376U 20019S   26162.98918275  .00059625  00000+0  63901-3 0  9991,2 45376  53.0428  52.7440 0004945 102.6739 257.4827 15.63266733344650
STARLINK-1305,45377,53.0382,0.0002383,15.72174351,351.0799797302225,354.28788898753737,1 45377U 20019T   26163.81004044  .00058684  00000+0  43819-3 0  9995,2 45377  53.0382  26.9396 0002383 232.7726 127.3074 15.72174351345090
STARLINK-1319,45379,53.0379,0.000214,15.7825292,333.9538272718746,336.8272170513601,1 45379U 20019V   26163.82287509  .00088720  00000+0  50492-3 0  9996,2 45379  53.0379  18.3620 0002140 105.3963 254.7294 15.78252920345210
STARLINK-1266,45383,53.0448,0.0001311,15.66352407,368.46745961421584,370.23665124454874,1 45383U 20019Z   26163.82791411  .00047354  00000+0  45105-3 0  9996,2 45383  53.0448  33.4915 0001311 182.7436 177.3571 15.66352407344990
STARLINK-1267,45384,53.0439,0.0006043,15.6582533,366.7877424373146,374.94458766259413,1 45384U 20019AA  26163.86115336  .00049645  00000+0  48221-3 0  9994,2 45384  53.0439  24.5655 0006043 129.2409 230.9143 15.65825330345122
STARLINK-1272,45386,53.0396,0.0006135,15.70390515,353.64759511326065,361.91256537071877,1 45386U 20019AC  26163.80403339  .00064412  00000+0  51708-3 0  9996,2 45386  53.0396   3.4572 0006135 109.9859 250.1818 15.70390515345419
STARLINK-1274,45387,53.0209,0.0006786,15.62798637,374.9914928972521,384.16306271509075,1 45387U 20019AD  26163.85578042  .00084866  00000+0  92052-3 0  9998,2 45387  53.0209   2.6924 0006786 162.2004 197.9248 15.62798637345425
STARLINK-1280,45388,53.0359,2.35e-05,15.83202646,321.2329967844553,321.54787457393195,1 45388U 20019AE  26163.81091799  .00118034  00000+0  53239-3 0  9993,2 45388  53.0359  10.5285 0000235 305.0727  55.0273 15.83202646345304
STARLINK-1283,45389,53.0405,0.000233,15.72206638,351.0235243415191,354.160043954932,1 45389U 20019AF  26163.81557863  .00063473  00000+0  47267-3 0  9993,2 45389  53.0405   2.4169 0002330 163.1003 197.0092 15.72206638345439
STARLINK-1284,45390,53.041,0.0003707,15.70540477,354.85444490402915,359.8481359225407,1 45390U 20019AG  26163.83860419  .00059657  00000+0  47684-3 0  9993,2 45390  53.0410  26.2514 0003707  56.5879 303.5492 15.70540477345090
STARLINK-1297,45395,53.0419,0.0005504,15.68848118,358.48437753352937,365.9041341799766,1 45395U 20019AM  26163.85861632  .00053297  00000+0  45756-3 0  9990,2 45395  53.0419  25.2480 0005504  71.0906 289.0706 15.68848118344292
STARLINK-1307,45397,53.0518,0.0001292,15.570355,395.3668792204098,397.117378787344,1 45397U 20019AP  26163.82176065  .00049253  00000+0  67180-3 0  9990,2 45397  53.0518  31.7664 0001292  97.1788 262.9369 15.57035500344844
STARLINK-1255,45399,53.0353,0.0004228,15.66263064,366.7557002826443,372.4615940018675,1 45399U 20019AR  26163.83207360  .00048974  00000+0  46773-3 0  9990,2 45399  53.0353 359.2352 0004228 128.4532 231.6862 15.66263064345280
STARLINK-1260,45404,53.1566,0.0005661,15.38427273,446.8936176634779,454.6252942309011,1 45404U 20019AW  26163.82601549  .00051338  00000+0  13353-2 0  9998,2 45404  53.1566  44.8207 0005661 112.2002 247.9603 15.38427273344572
STARLINK-1263,45405,53.158,0.0003771,15.35437884,457.0416497931692,462.1986862492904,1 45405U 20019AX  26163.87078995  .00038516  00000+0  11079-2 0  9993,2 45405  53.1580  45.9707 0003771 127.0346 233.1003 15.35437884344567
STARLINK-1265,45406,53.156,0.0004104,15.38719202,447.0934757424275,452.6979249828855,1 45406U 20019AY  26163.81730485  .00046261  00000+0  11939-2 0  9998,2 45406  53.1560  44.8330 0004104  98.1736 261.9734 15.38719202344579
STARLINK-1278,45408,53.0401,0.0005421,15.69777673,355.8806121917578,363.18559411759816,1 45408U 20019BA  26163.88208376  .00056090  00000+0  46306-3 0  9994,2 45408  53.0401  24.0305 0005421  97.2169 262.9464 15.69777673344851
STARLINK-1296,45412,53.1559,0.0004614,15.38913985,446.16934250611484,452.46971939287505,1 45412U 20019BE  26163.85633235  .00042626  00000+0  10944-2 0  9990,2 45412  53.1559  44.3352 0004614  96.8141 263.3388 15.38913985344580
STARLINK-1309,45414,53.0608,0.0005418,15.68762421,358.78767915323533,366.0917680909515,1 45414U 20019BG  26163.84173383  .00049505  00000+0  42708-3 0  9991,2 45414  53.0608  18.2193 0005418  66.8569 293.3017 15.68762421344912
